NORAD_CAT_ID,OBJECT_NAME,OBJECT_TYPE,EPOCH,MEAN_MOTION,ECCENTRICITY,INCLINATION,RA_OF_ASC_NODE,ARG_OF_PERICENTER,MEAN_ANOMALY,BSTAR,MEAN_MOTION_DOT,MEAN_MOTION_DDOT,TLE_LINE0,TLE_LINE1,TLE_LINE2,SEMIMAJOR_AXIS,PERIOD,APOGEE,PERIGEE,DECAYED
53423.0,STARLINK-4539,PAYLOAD,2024-01-22 05:13:32,15.08847741,0.0001513,53.2178,4.3322,86.1584,273.9581,0.00012949,1.774e-05,0.0,0 STARLINK-4539,1 53423U 22097AM  24022.21773909  .00001774  00000-0  12949-3 0  9992,2 53423  53.2178   4.3322 0001513  86.1584 273.9581 15.08847741 81257,6917.857,95.437,540.768,538.675,0.0
53423.0,STARLINK-4539,PAYLOAD,2024-01-23 03:28:54,15.08871637,0.0001487,53.2188,0.1758,94.3833,265.7329,0.00028334,4.228e-05,0.0,0 STARLINK-4539,1 53423U 22097AM  24023.14508041  .00004228  00000-0  28334-3 0  9990,2 53423  53.2188   0.1758 0001487  94.3833 265.7329 15.08871637 80937,6917.784,95.436,540.677,538.62,0.0
53423.0,STARLINK-4539,PAYLOAD,2024-01-23 05:04:19,15.08848665,0.0001272,53.2192,359.8784,96.9621,263.1515,0.00010627,1.404e-05,0.0,0 STARLINK-4539,1 53423U 22097AM  24023.21134039  .00001404  00000-0  10627-3 0  9999,2 53423  53.2192 359.8784 0001272  96.9621 263.1515 15.08848665 80945,6917.854,95.437,540.599,538.839,0.0
53423.0,STARLINK-4539,PAYLOAD,2024-01-24 03:19:43,15.08843868,0.000137,53.2184,355.7096,88.0426,272.0723,2.5264e-05,1.14e-06,0.0,0 STARLINK-4539,1 53423U 22097AM  24024.13870336  .00000114  00000-0  25264-4 0  9999,2 53423  53.2184 355.7096 0001370  88.0426 272.0723 15.08843868 81087,6917.869,95.437,540.681,538.786,0.0
53423.0,STARLINK-4539,PAYLOAD,2024-01-24 04:55:06,15.08847295,0.0001485,53.22,355.4151,103.9679,256.1478,7.7949e-05,9.53e-06,0.0,0 STARLINK-4539,1 53423U 22097AM  24024.20494032  .00000953  00000-0  77949-4 0  9990,2 53423  53.2200 355.4151 0001485 103.9679 256.1478 15.08847295 81559,6917.858,95.437,540.75,538.696,0.0
53423.0,STARLINK-4539,PAYLOAD,2024-01-25 03:10:31,15.08839662,0.0001857,53.2193,351.2571,131.329,228.7862,-2.4092e-05,-6.72e-06,0.0,0 STARLINK-4539,1 53423U 22097AM  24025.13231086 -.00000672  00000-0 -24092-4 0  9992,2 53423  53.2193 351.2571 0001857 131.3290 228.7862 15.08839662 81233,6917.881,95.438,541.031,538.462,0.0
53423.0,STARLINK-4539,PAYLOAD,2024-01-25 04:45:54,15.08839357,0.0001388,53.2193,350.9604,111.9756,248.1383,-3.5161e-06,-3.44e-06,0.0,0 STARLINK-4539,1 53423U 22097AM  24025.19855083 -.00000344  00000-0 -35161-5 0  9993,2 53423  53.2193 350.9604 0001388 111.9756 248.1383 15.08839357 81703,6917.882,95.438,540.708,538.787,0.0
53423.0,STARLINK-4539,PAYLOAD,2024-01-26 04:36:41,15.08846564,0.0001343,53.2193,346.5005,95.1389,264.9757,4.4494e-05,4.2e-06,0.0,0 STARLINK-4539,1 53423U 22097AM  24026.19214977  .00000420  00000-0  44494-4 0  9996,2 53423  53.2193 346.5005 0001343  95.1389 264.9757 15.08846564 81399,6917.86,95.437,540.654,538.796,0.0
53423.0,STARLINK-4539,PAYLOAD,2024-01-27 02:52:06,15.0881551,0.0001917,53.2193,342.3366,58.4977,301.6202,0.00050872,7.812e-05,0.0,0 STARLINK-4539,1 53423U 22097AM  24027.11952106  .00007812  00000-0  50872-3 0  9990,2 53423  53.2193 342.3366 0001917  58.4977 301.6202 15.08815510 81532,6917.955,95.439,541.146,538.494,0.0
53423.0,STARLINK-4539,PAYLOAD,2024-01-27 04:27:30,15.08791607,0.0002018,53.2199,342.0395,70.3678,289.7532,0.00094132,0.00014705,0.0,0 STARLINK-4539,1 53423U 22097AM  24027.18576817  .00014705  00000-0  94132-3 0  9994,2 53423  53.2199 342.0395 0002018  70.3678 289.7532 15.08791607 81544,6918.028,95.441,541.289,538.497,0.0
53423.0,STARLINK-4539,PAYLOAD,2024-01-27 20:21:20,15.08842097,0.0002071,53.2196,339.0705,64.4562,295.6644,0.00012069,1.633e-05,0.0,0 STARLINK-4539,1 53423U 22097AM  24027.84815679  .00001633  00000-0  12069-3 0  9994,2 53423  53.2196 339.0705 0002071  64.4562 295.6644 15.08842097 81648,6917.874,95.437,541.172,538.306,0.0
53423.0,STARLINK-4539,PAYLOAD,2024-01-28 05:53:39,15.08847475,0.0001485,53.2194,337.2781,85.6498,274.4664,6.029e-05,6.72e-06,0.0,0 STARLINK-4539,1 53423U 22097AM  24028.24559189  .00000672  00000-0  60290-4 0  9992,2 53423  53.2194 337.2781 0001485  85.6498 274.4664 15.08847475 82161,6917.858,95.437,540.75,538.695,0.0
53423.0,STARLINK-4539,PAYLOAD,2024-01-29 02:33:40,15.08845762,0.0001556,53.2185,333.4122,89.9505,270.1665,-1.3653e-05,-5.05e-06,0.0,0 STARLINK-4539,1 53423U 22097AM  24029.10671529 -.00000505  00000-0 -13653-4 0  9999,2 53423  53.2185 333.4122 0001556  89.9505 270.1665 15.08845762 81837,6917.863,95.437,540.804,538.651,0.0
53423.0,STARLINK-4539,PAYLOAD,2024-01-30 05:35:12,15.08848365,0.0001521,53.2185,328.3554,100.2749,259.8415,8.4424e-05,1.056e-05,0.0,0 STARLINK-4539,1 53423U 22097AM  24030.23278868  .00001056  00000-0  84424-4 0  9998,2 53423  53.2185 328.3554 0001521 100.2749 259.8415 15.08848365 82007,6917.855,95.437,540.772,538.668,0.0
53423.0,STARLINK-4539,PAYLOAD,2024-01-30 19:53:41,15.08844544,0.0001544,53.2194,325.6746,106.2249,253.8913,-2.7048e-05,-7.19e-06,0.0,0 STARLINK-4539,1 53423U 22097AM  24030.82895466 -.00000719  00000-0 -27048-4 0  9998,2 53423  53.2194 325.6746 0001544 106.2249 253.8913 15.08844544 82097,6917.866,95.437,540.8,538.663,0.0
53423.0,STARLINK-4539,PAYLOAD,2024-01-31 05:26:00,15.08844776,0.0001659,53.2198,323.8933,74.9951,285.1225,4.0236e-07,-2.82e-06,0.0,0 STARLINK-4539,1 53423U 22097AM  24031.22639395 -.00000282  00000-0  40236-6 0  9990,2 53423  53.2198 323.8933 0001659  74.9951 285.1225 15.08844776 82616,6917.866,95.437,540.878,538.583,0.0
53423.0,STARLINK-4539,PAYLOAD,2024-01-31 19:44:29,15.08841428,0.000163,53.2198,321.218,82.3041,277.8136,-5.9079e-05,-1.228e-05,0.0,0 STARLINK-4539,1 53423U 22097AM  24031.82255978 -.00001228  00000-0 -59079-4 0  9992,2 53423  53.2198 321.2180 0001630  82.3041 277.8136 15.08841428 82243,6917.876,95.437,540.869,538.613,0.0
53423.0,STARLINK-4539,PAYLOAD,2024-02-01 00:30:38,15.08840786,0.0001651,53.2199,320.326,79.5919,280.5259,-6.2093e-05,-1.276e-05,0.0,0 STARLINK-4539,1 53423U 22097AM  24032.02128015 -.00001276  00000-0 -62093-4 0  9999,2 53423  53.2199 320.3260 0001651  79.5919 280.5259 15.08840786 82735,6917.878,95.438,540.885,538.601,0.0
53423.0,STARLINK-4539,PAYLOAD,2024-02-01 19:35:16,15.08839492,0.0001655,53.2197,316.7576,85.0482,275.0699,5.2253e-05,5.44e-06,0.0,0 STARLINK-4539,1 53423U 22097AM  24032.81615827  .00000544  00000-0  52253-4 0  9990,2 53423  53.2197 316.7576 0001655  85.0482 275.0699 15.08839492 82855,6917.882,95.438,540.892,538.602,0.0
53423.0,STARLINK-4539,PAYLOAD,2024-02-02 00:21:25,15.08841229,0.0001692,53.2198,315.8656,80.4381,279.6803,6.3739e-05,7.27e-06,0.0,0 STARLINK-4539,1 53423U 22097AM  24033.01487716  .00000727  00000-0  63739-4 0  9991,2 53423  53.2198 315.8656 0001692  80.4381 279.6803 15.08841229 82424,6917.877,95.437,540.912,538.571,0.0
53423.0,STARLINK-4539,PAYLOAD,2024-02-02 22:36:49,15.08835064,0.0001759,53.2185,311.7029,55.7752,304.3407,4.6616e-05,4.54e-06,0.0,0 STARLINK-4539,1 53423U 22097AM  24033.94224456  .00000454  00000-0  46616-4 0  9995,2 53423  53.2185 311.7029 0001759  55.7752 304.3407 15.08835064 83023,6917.895,95.438,540.977,538.544,0.0
53423.0,STARLINK-4539,PAYLOAD,2024-02-03 03:22:59,15.08835719,0.0001623,53.2191,310.811,73.0191,287.0979,4.63e-05,4.49e-06,0.0,0 STARLINK-4539,1 53423U 22097AM  24034.14096385  .00000449  00000-0  46300-4 0  9990,2 53423  53.2191 310.8110 0001623  73.0191 287.0979 15.08835719 82590,6917.893,95.438,540.881,538.636,0.0
53423.0,STARLINK-4539,PAYLOAD,2024-02-03 22:27:36,15.08839599,0.0001629,53.2189,307.2481,76.6427,283.4747,3.5367e-05,2.75e-06,0.0,0 STARLINK-4539,1 53423U 22097AM  24034.93584346  .00000275  00000-0  35367-4 0  9994,2 53423  53.2189 307.2481 0001629  76.6427 283.4747 15.08839599 83173,6917.882,95.438,540.874,538.62,0.0
53423.0,STARLINK-4539,PAYLOAD,2024-02-04 03:13:45,15.08855532,0.0001497,53.2183,306.3537,87.9976,272.1188,6.8557e-06,-1.79e-06,0.0,0 STARLINK-4539,1 53423U 22097AM  24035.13455259 -.00000179  00000-0  68557-5 0  9999,2 53423  53.2183 306.3537 0001497  87.9976 272.1188 15.08855532 82747,6917.833,95.437,540.734,538.662,0.0
53423.0,STARLINK-4539,PAYLOAD,2024-02-04 22:18:23,15.08838976,0.000156,53.2181,302.7862,120.0413,240.0734,5.1575e-05,5.33e-06,0.0,0 STARLINK-4539,1 53423U 22097AM  24035.92944074  .00000533  00000-0  51575-4 0  9998,2 53423  53.2181 302.7862 0001560 120.0413 240.0734 15.08838976 83321,6917.884,95.438,540.828,538.669,0.0
53423.0,STARLINK-4539,PAYLOAD,2024-02-04 23:53:46,15.08839611,0.0001575,53.2181,302.4889,113.601,246.5148,5.68e-05,6.16e-06,0.0,0 STARLINK-4539,1 53423U 22097AM  24035.99568072  .00000616  00000-0  56800-4 0  9993,2 53423  53.2181 302.4889 0001575 113.6010 246.5148 15.08839611 82870,6917.882,95.438,540.836,538.657,0.0
53423.0,STARLINK-4539,PAYLOAD,2024-02-05 11:01:28,15.08843154,0.0001634,53.2185,300.4081,85.6566,274.4613,9.2055e-05,1.177e-05,0.0,0 STARLINK-4539,1 53423U 22097AM  24036.45935975  .00001177  00000-0  92055-4 0  9990,2 53423  53.2185 300.4081 0001634  85.6566 274.4613 15.08843154 83400,6917.871,95.437,540.866,538.605,0.0
53423.0,STARLINK-4539,PAYLOAD,2024-02-05 22:09:10,15.0885021,0.0001639,53.2185,298.3218,117.6847,242.4311,2.0365e-05,3.6e-07,0.0,0 STARLINK-4539,1 53423U 22097AM  24036.92303471  .00000036  00000-0  20365-4 0  9990,2 53423  53.2185 298.3218 0001639 117.6847 242.4311 15.08850210 83478,6917.849,95.437,540.848,538.58,0.0
53423.0,STARLINK-4539,PAYLOAD,2024-02-06 02:55:19,15.08853593,0.0001565,53.2183,297.4305,110.7006,249.4154,5.5077e-05,5.89e-06,0.0,0 STARLINK-4539,1 53423U 22097AM  24037.12175088  .00000589  00000-0  55077-4 0  9995,2 53423  53.2183 297.4305 0001565 110.7006 249.4154 15.08853593 83044,6917.839,95.437,540.786,538.621,0.0
53423.0,STARLINK-4539,PAYLOAD,2024-02-06 21:59:57,15.08841407,0.0001783,53.2171,293.8582,127.6809,232.4345,4.0138e-05,3.51e-06,0.0,0 STARLINK-4539,1 53423U 22097AM  24037.91663710  .00000351  00000-0  40138-4 0  9995,2 53423  53.2171 293.8582 0001783 127.6809 232.4345 15.08841407 83627,6917.876,95.437,540.975,538.508,0.0
